H1 CPF 01  gfz 2021 11 21 13  8252 tandemx   
H2 1003001  6202 36605    2021 11 21 12 59 42 2021 11 26 00 00 42   120 1 1  0 0 0
H9
10 0 59543  32382.000000  0   -4402949.978   4760556.542   2317735.533
10 0 59543  32502.000000  0   -4025106.393   4615416.015   3146186.249
10 0 59543  32622.000000  0   -3580194.963   4382375.528   3919233.126
10 0 59543  32742.000000  0   -3077520.468   4064433.325   4623278.082
10 0 59543  32862.000000  0   -2527332.799   3666248.541   5245951.697
10 0 59543  32982.000000  0   -1940613.607   3194068.584   5776330.014
10 0 59543  33102.000000  0   -1328852.994   2655625.428   6205122.577
10 0 59543  33222.000000  0    -703821.202   2060002.964   6524828.989
10 0 59543  33342.000000  0     -77342.051   1417479.833   6729862.671
10 0 59543  33462.000000  0     538930.438    739349.734   6816643.708
10 0 59543  33582.000000  0    1133728.344     37722.232   6783656.620
10 0 59543  33702.000000  0    1696374.649   -674692.509   6631475.572
10 0 59543  33822.000000  0    2216974.362  -1384813.565   6362755.578
10 0 59543  33942.000000  0    2686588.860  -2079428.495   5982189.683
10 0 59543  34062.000000  0    3097391.793  -2745439.865   5496432.563
10 0 59543  34182.000000  0    3442802.359  -3370113.817   4913989.660
10 0 59543  34302.000000  0    3717594.239  -3941326.876   4245074.266
10 0 59543  34422.000000  0    3917978.637  -4447806.094   3501432.747
10 0 59543  34542.000000  0    4041657.996  -4879357.320   2696140.026
10 0 59543  34662.000000  0    4087849.978  -5227076.253   1843368.887
10 0 59543  34782.000000  0    4057280.478  -5483536.602    958136.470
10 0 59543  34902.000000  0    3952145.071  -5642950.110     56033.199
10 0 59543  35022.000000  0    3776041.186  -5701295.012   -847058.718
10 0 59543  35142.000000  0    3533871.412  -5656410.473  -1735254.601
10 0 59543  35262.000000  0    3231719.797  -5508051.666  -2592954.831
10 0 59543  35382.000000  0    2876706.625  -5257907.036  -3405125.193
10 0 59543  35502.000000  0    2476823.341  -4909576.017  -4157564.406
10 0 59543  35622.000000  0    2040752.865  -4468508.922  -4837151.815
10 0 59543  35742.000000  0    1577681.156  -3941911.398  -5432071.153
10 0 59543  35862.000000  0    1097105.119  -3338617.065  -5932007.474
10 0 59543  35982.000000  0     608639.361  -2668932.249  -6328315.663
10 0 59543  36102.000000  0     121825.884  -1944455.242  -6614158.948
10 0 59543  36222.000000  0    -354048.722  -1177873.255  -6784615.918
10 0 59543  36342.000000  0    -810125.434   -382741.342  -6836756.303
10 0 59543  36462.000000  0   -1238133.113    426753.276  -6769685.262
10 0 59543  36582.000000  0   -1630535.061   1236037.786  -6584556.308
10 0 59543  36702.000000  0   -1980658.501   2030409.595  -6284553.505
10 0 59543  36822.000000  0   -2282806.213   2795296.730  -5874843.307
10 0 59543  36942.000000  0   -2532349.619   3516521.762  -5362495.584
10 0 59543  37062.000000  0   -2725800.699   4180563.785  -4756373.120
10 0 59543  37182.000000  0   -2860862.634   4774815.110  -4066989.523
10 0 59543  37302.000000  0   -2936456.321   5287825.932  -3306335.425
10 0 59543  37422.000000  0   -2952721.938   5709531.066  -2487677.657
10 0 59543  37542.000000  0   -2910996.921   6031457.298  -1625333.720
10 0 59543  37662.000000  0   -2813768.301   6246903.588   -734420.967
10 0 59543  37782.000000  0   -2664601.083   6351086.910    169410.774
10 0 59543  37902.000000  0   -2468045.944   6341255.493   1070259.417
10 0 59543  38022.000000  0   -2229523.923   6216760.019   1952262.229
10 0 59543  38142.000000  0   -1955192.183   5979078.991   2799885.117
10 0 59543  38262.000000  0   -1651796.511   5631801.770   3598203.548
10 0 59543  38382.000000  0   -1326514.215   5180570.208   4333170.604
10 0 59543  38502.000000  0    -986790.976   4632979.768   4991867.922
10 0 59543  38622.000000  0    -640173.674   3998441.896   5562733.157
10 0 59543  38742.000000  0    -294146.378   3288013.812   6035759.498
10 0 59543  38862.000000  0      44027.873   2514197.340   6402666.952
10 0 59543  38982.000000  0     367456.760   1690712.995   6657040.667
10 0 59543  39102.000000  0     669757.095    832252.912   6794437.691
10 0 59543  39222.000000  0     945179.041    -45783.004   6812458.735
10 0 59543  39342.000000  0    1188714.313   -927562.032   6710787.896
10 0 59543  39462.000000  0    1396186.929  -1797103.874   6491198.653
10 0 59543  39582.000000  0    1564325.100  -2638569.770   6157525.294
10 0 59543  39702.000000  0    1690813.061  -3436552.320   5715600.360
10 0 59543  39822.000000  0    1774321.632  -4176360.458   5173157.481
10 0 59543  39942.000000  0    1814517.729  -4844293.065   4539701.204
10 0 59543  40062.000000  0    1812053.361  -5427899.141   3826347.218
10 0 59543  40182.000000  0    1768533.135  -5916220.034   3045630.281
10 0 59543  40302.000000  0    1686459.452  -6300003.591   2211283.256
10 0 59543  40422.000000  0    1569158.942  -6571887.543   1337994.083
10 0 59543  40542.000000  0    1420690.820  -6726548.863    441142.967
10 0 59543  40662.000000  0    1245738.687  -6760813.604   -463475.540
10 0 59543  40782.000000  0    1049487.823  -6673724.605  -1359941.395
10 0 59543  40902.000000  0     837492.303  -6466560.027  -2232499.379
10 0 59543  41022.000000  0     615535.890  -6142807.281  -3065842.216
10 0 59543  41142.000000  0     389491.289  -5708094.846  -3845383.267
10 0 59543  41262.000000  0     165179.377  -5170082.381  -4557513.306
10 0 59543  41382.000000  0     -51767.824  -4538312.373  -5189834.781
10 0 59543  41502.000000  0    -256036.546  -3824029.450  -5731370.853
10 0 59543  41622.000000  0    -442750.524  -3039970.495  -6172746.777
10 0 59543  41742.000000  0    -607577.551  -2200131.069  -6506341.053
10 0 59543  41862.000000  0    -746821.859  -1319512.904  -6726405.461
10 0 59543  41982.000000  0    -857500.778   -413857.635  -6829154.223
10 0 59543  42102.000000  0    -937404.316    500630.701  -6812822.027
10 0 59543  42222.000000  0    -985137.093   1407568.500  -6677689.868
10 0 59543  42342.000000  0   -1000142.287   2290678.498  -6426080.694
10 0 59543  42462.000000  0    -982707.044   3134074.610  -6062324.420
10 0 59543  42582.000000  0    -933949.374   3922544.196  -5592692.579
10 0 59543  42702.000000  0    -855786.495   4641821.650  -5025300.410
10 0 59543  42822.000000  0    -750885.248   5278849.771  -4369978.513
10 0 59543  42942.000000  0    -622595.452   5822024.147  -3638112.708
10 0 59543  43062.000000  0    -474866.753   6261413.998  -2842454.317
10 0 59543  43182.000000  0    -312150.507   6588955.457  -1996904.009
10 0 59543  43302.000000  0    -139289.052   6798612.362  -1116270.851
10 0 59543  43422.000000  0      38605.452   6886499.378   -216011.230
10 0 59543  43542.000000  0     216280.083   6850963.857    688047.495
10 0 59543  43662.000000  0     388474.522   6692623.563   1579993.449
10 0 59543  43782.000000  0     550054.446   6414357.363   2444119.949
10 0 59543  43902.000000  0     696141.136   6021249.664   3265209.768
10 0 59543  44022.000000  0     822235.056   5520492.610   4028809.557
10 0 59543  44142.000000  0     924332.378   4921248.670   4721489.330
10 0 59543  44262.000000  0     999026.705   4234470.346   5331084.380
10 0 59543  44382.000000  0    1043597.128   3472688.119   5846903.662
10 0 59543  44502.000000  0    1056081.135   2649774.577   6259913.130
10 0 59543  44622.000000  0    1035328.300   1780684.967   6562888.846
10 0 59543  44742.000000  0     981035.628    881180.682   6750537.557
10 0 59543  44862.000000  0     893763.742    -32458.808   6819582.690
10 0 59543  44982.000000  0     774933.504   -943729.194   6768818.295
10 0 59543  45102.000000  0     626802.819  -1836199.424   6599130.035
10 0 59543  45222.000000  0     452423.886  -2693807.765   6313480.947
10 0 59543  45342.000000  0     255581.667  -3501152.611   5916862.777
10 0 59543  45462.000000  0      40715.105  -4243770.227   5416211.050
10 0 59543  45582.000000  0    -187177.157  -4908395.762   4820290.303
10 0 59543  45702.000000  0    -422645.593  -5483207.201   4139549.053
10 0 59543  45822.000000  0    -659912.596  -5958046.621   3385940.926
10 0 59543  45942.000000  0    -893005.868  -6324609.417   2572715.828
10 0 59543  46062.000000  0   -1115898.002  -6576598.860   1714185.768
10 0 59543  46182.000000  0   -1322649.993  -6709843.561    825470.065
10 0 59543  46302.000000  0   -1507556.767  -6722372.751    -77778.989
10 0 59543  46422.000000  0   -1665287.227  -6614445.340   -979661.023
10 0 59543  46542.000000  0   -1791016.873  -6388534.376  -1864316.180
10 0 59543  46662.000000  0   -1880550.111  -6049267.696  -2716211.595
10 0 59543  46782.000000  0   -1930429.358  -5603326.007  -3520420.313
10 0 59543  46902.000000  0   -1938027.729  -5059300.484  -4262885.998
10 0 59543  47022.000000  0   -1901622.983  -4427515.102  -4930667.027
10 0 59543  47142.000000  0   -1820451.798  -3719819.957  -5512156.292
10 0 59543  47262.000000  0   -1694743.618  -2949360.683  -5997274.713
10 0 59543  47382.000000  0   -1525733.333  -2130328.227  -6377636.294
10 0 59543  47502.000000  0   -1315652.733  -1277694.133  -6646681.476
10 0 59543  47622.000000  0   -1067702.038   -406937.912  -6799778.873
10 0 59543  47742.000000  0    -786001.887    466229.868  -6834296.042
10 0 59543  47862.000000  0    -475525.287   1326144.125  -6749639.227
10 0 59543  47982.000000  0    -142012.022   2157458.849  -6547262.211
10 0 59543  48102.000000  0     208133.385   2945414.078  -6230645.199
10 0 59543  48222.000000  0     567961.235   3676094.819  -5805242.950
10 0 59543  48342.000000  0     930110.486   4336675.688  -5278399.304
10 0 59543  48462.000000  0    1286954.151   4915647.953  -4659232.057
10 0 59543  48582.000000  0    1630755.394   5403026.973  -3958486.604
10 0 59543  48702.000000  0    1953830.878   5790533.256  -3188358.398
10 0 59543  48822.000000  0    2248717.645   6071743.835  -2362288.102
99
